[{"OBJECT_NAME":"PALISADE","OBJECT_ID":"2019-069A","EPOCH":"2026-03-09T16:08:09.565152","MEAN_MOTION":13.11903827,"ECCENTRICITY":0.0008751,"INCLINATION":87.8869,"RA_OF_ASC_NODE":299.6164,"ARG_OF_PERICENTER":344.4129,"MEAN_ANOMALY":15.6728,"EPHEMERIS_TYPE":0,"CLASSIFICATION_TYPE":"U","NORAD_CAT_ID":44634,"ELEMENT_SET_NO":999,"REV_AT_EPOCH":30606,"BSTAR":-0.0010924646,"MEAN_MOTION_DOT":-3.77e-6,"MEAN_MOTION_DDOT":0},{"OBJECT_NAME":"ONEWEB-0051","OBJECT_ID":"2020-008AA","EPOCH":"2026-03-09T21:35:48.699744","MEAN_MOTION":13.11417433,"ECCENTRICITY":0.00018257,"INCLINATION":87.8868,"RA_OF_ASC_NODE":40.8051,"ARG_OF_PERICENTER":82.9018,"MEAN_ANOMALY":277.2318,"EPHEMERIS_TYPE":0,"CLASSIFICATION_TYPE":"U","NORAD_CAT_ID":45155,"ELEMENT_SET_NO":999,"REV_AT_EPOCH":29807,"BSTAR":0.0013195334,"MEAN_MOTION_DOT":4.8e-6,"MEAN_MOTION_DDOT":0}]
